H1 CPF 01  gfz 2021 09 01 00  7441 terrasarx 
H2 0702601  6201 31698    2021 09 01 00 59 42 2021 09 06 00 00 42   120 1 1  0 0 0
H9
10 0 59459  16542.000000  0   -6411761.402  -2520714.727    -22607.926
10 0 59459  16662.000000  0   -6420984.510  -2333441.425    880231.592
10 0 59459  16782.000000  0   -6314327.653  -2106226.660   1767571.391
10 0 59459  16902.000000  0   -6092985.857  -1845052.479   2623782.043
10 0 59459  17022.000000  0   -5760289.567  -1556462.925   3433784.025
10 0 59459  17142.000000  0   -5321651.738  -1247409.765   4183320.999
10 0 59459  17262.000000  0   -4784470.455   -925091.569   4859215.291
10 0 59459  17382.000000  0   -4157994.896   -596791.561   5449598.495
10 0 59459  17502.000000  0   -3453158.264   -269717.698   5944118.201
10 0 59459  17622.000000  0   -2682378.225     49152.625   6334116.115
10 0 59459  17742.000000  0   -1859330.538    353218.327   6612773.652
10 0 59459  17862.000000  0    -998701.522    636387.742   6775224.785
10 0 59459  17982.000000  0    -115924.039    893198.722   6818635.378
10 0 59459  18102.000000  0     773098.947   1118922.659   6742248.977
10 0 59459  18222.000000  0    1652279.708   1309651.400   6547399.304
10 0 59459  18342.000000  0    2505635.908   1462365.269   6237488.255
10 0 59459  18462.000000  0    3317580.856   1574980.870   5817930.835
10 0 59459  18582.000000  0    4073210.873   1646378.291   5296065.966
10 0 59459  18702.000000  0    4758581.797   1676407.300   4681033.766
10 0 59459  18822.000000  0    5360972.876   1665873.301   3983623.272
10 0 59459  18942.000000  0    5869133.805   1616501.889   3216086.242
10 0 59459  19062.000000  0    6273502.808   1530882.943   2391921.529
10 0 59459  19182.000000  0    6566396.368   1412394.812   1525637.268
10 0 59459  19302.000000  0    6742163.383   1265111.429    632489.775
10 0 59459  19422.000000  0    6797299.089   1093694.083   -271791.964
10 0 59459  19542.000000  0    6730517.193    903270.434  -1171292.661
10 0 59459  19662.000000  0    6542775.002    699303.346  -2050199.808
10 0 59459  19782.000000  0    6237254.690    487453.196  -2893088.396
10 0 59459  19902.000000  0    5819300.423    273438.370  -3685196.883
10 0 59459  20022.000000  0    5296313.351     62896.775  -4412688.158
10 0 59459  20142.000000  0    4677606.521   -138748.235  -5062889.218
10 0 59459  20262.000000  0    3974226.736   -326413.857  -5624504.834
10 0 59459  20382.000000  0    3198748.304   -495473.419  -6087805.223
10 0 59459  20502.000000  0    2365040.889   -641859.798  -6444784.892
10 0 59459  20622.000000  0    1488017.619   -762153.622  -6689288.571
10 0 59459  20742.000000  0     583369.934   -853656.285  -6817107.209
10 0 59459  20862.000000  0    -332710.009   -914445.472  -6826043.048
10 0 59459  20982.000000  0   -1243812.701   -943412.725  -6715942.358
10 0 59459  21102.000000  0   -2133598.401   -940283.132  -6488698.424
10 0 59459  21222.000000  0   -2986083.920   -905616.251  -6148221.391
10 0 59459  21342.000000  0   -3785922.984   -840788.900  -5700378.061
10 0 59459  21462.000000  0   -4518681.194   -747959.870  -5152902.542
10 0 59459  21582.000000  0   -5171098.991   -630016.510  -4515273.551
10 0 59459  21702.000000  0   -5731337.106   -490504.843  -3798561.844
10 0 59459  21822.000000  0   -6189201.677   -333543.701  -3015247.846
10 0 59459  21942.000000  0   -6536341.600   -163723.867  -2179010.376
10 0 59459  22062.000000  0   -6766414.228     14004.370  -1304491.229
10 0 59459  22182.000000  0   -6875215.173    194454.597   -407037.045
10 0 59459  22302.000000  0   -6860764.125    372334.060    497576.657
10 0 59459  22422.000000  0   -6723346.714    542377.229   1393429.031
10 0 59459  22542.000000  0   -6465512.721    699479.284   2264742.554
10 0 59459  22662.000000  0   -6092027.937    838826.317   3096170.394
10 0 59459  22782.000000  0   -5609780.469    956018.938   3873075.020
10 0 59459  22902.000000  0   -5027644.758   1047185.839   4581790.934
10 0 59459  23022.000000  0   -4356308.220   1109084.635   5209866.852
10 0 59459  23142.000000  0   -3608065.238   1139187.412   5746282.827
10 0 59459  23262.000000  0   -2796583.690   1135749.695   6181640.544
10 0 59459  23382.000000  0   -1936647.872   1097861.042   6508323.920
10 0 59459  23502.000000  0   -1043882.607   1025477.107   6720626.178
10 0 59459  23622.000000  0    -134466.627    919431.507   6814842.279
10 0 59459  23742.000000  0     775160.238    781427.942   6789328.905
10 0 59459  23862.000000  0    1668592.930    614012.840   6644531.198
10 0 59459  23982.000000  0    2529755.670    420528.973   6382975.688
10 0 59459  24102.000000  0    3343190.963    205050.415   6009230.086
10 0 59459  24222.000000  0    4094339.430    -27700.462   5529828.546
10 0 59459  24342.000000  0    4769804.175   -272452.397   4953163.204
10 0 59459  24462.000000  0    5357595.941   -523499.069   4289343.205
10 0 59459  24582.000000  0    5847354.384   -774825.730   3550022.537
10 0 59459  24702.000000  0    6230541.354  -1020245.646   2748198.105
10 0 59459  24822.000000  0    6500599.825  -1253543.426   1897980.088
10 0 59459  24942.000000  0    6653073.920  -1468620.903   1014339.730
10 0 59459  25062.000000  0    6685688.679  -1659643.938    112840.476
10 0 59459  25182.000000  0    6598386.564  -1821185.806   -790645.320
10 0 59459  25302.000000  0    6393317.156  -1948361.565  -1680225.007
10 0 59459  25422.000000  0    6074783.381  -2036951.866  -2540273.765
10 0 59459  25542.000000  0    5649143.874  -2083512.112  -3355715.319
10 0 59459  25662.000000  0    5124676.276  -2085464.647  -4112288.756
10 0 59459  25782.000000  0    4511406.070  -2041171.976  -4796797.354
10 0 59459  25902.000000  0    3820904.203  -1949989.993  -5397335.224
10 0 59459  26022.000000  0    3066058.527  -1812300.008  -5903486.449
10 0 59459  26142.000000  0    2260827.267  -1629518.890  -6306494.639
10 0 59459  26262.000000  0    1419978.850  -1404087.725  -6599404.478
10 0 59459  26382.000000  0     558820.390  -1139439.452  -6777170.940
10 0 59459  26502.000000  0    -307077.427   -839946.932  -6836736.639
10 0 59459  26622.000000  0   -1162155.957   -510851.537  -6777078.172
10 0 59459  26742.000000  0   -1991141.741   -158173.469  -6599222.072
10 0 59459  26862.000000  0   -2779313.249    211395.694  -6306227.985
10 0 59459  26982.000000  0   -3512756.260    590615.659  -5903141.511
10 0 59459  27102.000000  0   -4178607.319    971834.711  -5396917.451
10 0 59459  27222.000000  0   -4765281.075   1347138.834  -4796310.718
10 0 59459  27342.000000  0   -5262677.649   1708511.996  -4111737.549
10 0 59459  27462.000000  0   -5662365.039   2048004.067  -3355104.229
10 0 59459  27582.000000  0   -5957732.243   2357901.424  -2539607.994
10 0 59459  27702.000000  0   -6144110.431   2630897.821  -1679511.521
10 0 59459  27822.000000  0   -6218857.726   2860261.521   -789894.078
10 0 59459  27942.000000  0   -6181404.923   3039994.195    113616.269
10 0 59459  28062.000000  0   -6033259.414   3164976.761   1015124.571
10 0 59459  28182.000000  0   -5777965.953   3231098.698   1898757.332
10 0 59459  28302.000000  0   -5421026.342   3235367.146   2748951.034
10 0 59459  28422.000000  0   -4969780.257   3175993.155   3550734.132
10 0 59459  28542.000000  0   -4433249.973   3052452.307   4289997.651
10 0 59459  28662.000000  0   -3821952.791   2865518.332   4953746.599
10 0 59459  28782.000000  0   -3147688.069   2617270.278   5530328.233
10 0 59459  28902.000000  0   -2423302.398   2311073.354   6009635.266
10 0 59459  29022.000000  0   -1662437.994   1951532.728   6383278.594
10 0 59459  29142.000000  0    -879270.525   1544422.188   6644727.689
10 0 59459  29262.000000  0     -88243.369   1096589.313   6789417.227
10 0 59459  29382.000000  0     696198.165    615838.953   6814821.840
10 0 59459  29502.000000  0    1459869.720    110797.216   6720497.149
10 0 59459  29622.000000  0    2189103.037   -409242.419   6508087.348
10 0 59459  29742.000000  0    2870989.981   -934489.547   6181299.306
10 0 59459  29862.000000  0    3493612.474  -1454839.984   5745842.704
10 0 59459  29982.000000  0    4046254.590  -1960069.828   5209335.877
10 0 59459  30102.000000  0    4519591.197  -2440036.257   4581177.875
10 0 59459  30222.000000  0    4905851.712  -2884882.034   3872390.289
10 0 59459  30342.000000  0    5198955.917  -3285240.150   3095427.567
10 0 59459  30462.000000  0    5394616.743  -3632432.295   2263957.623
10 0 59459  30582.000000  0    5490406.435  -3918657.124   1392618.879
10 0 59459  30702.000000  0    5485786.317  -4137164.553    496757.671
10 0 59459  30822.000000  0    5382098.401  -4282409.741   -407849.315
10 0 59459  30942.000000  0    5182519.024  -4350184.488  -1305281.771
10 0 59459  31062.000000  0    4891974.953  -4337720.824  -2179765.018
10 0 59459  31182.000000  0    4517024.469  -4243765.019  -3015954.778
10 0 59459  31302.000000  0    4065707.372  -4068620.759  -3799211.103
10 0 59459  31422.000000  0    3547367.667  -3814160.067  -4515856.098
10 0 59459  31542.000000  0    2972454.382  -3483803.165  -5153410.104
10 0 59459  31662.000000  0    2352305.428  -3082467.951  -5700802.349
10 0 59459  31782.000000  0    1698921.077  -2616491.886  -6148552.653
10 0 59459  31902.000000  0    1024731.374  -2093528.599  -6488925.920
10 0 59459  32022.000000  0     342359.893  -1522418.416  -6716056.003
10 0 59459  32142.000000  0    -335609.819   -913037.402  -6826035.935
10 0 59459  32262.000000  0    -996860.973   -276128.262  -6816976.730
10 0 59459  32382.000000  0   -1629561.847    376884.930  -6689035.992
10 0 59459  32502.000000  0   -2222572.723   1034096.412  -6444414.800
10 0 59459  32622.000000  0   -2765637.464   1683330.299  -6087323.944
10 0 59459  32742.000000  0   -3249558.458   2312360.723  -5623919.591
10 0 59459  32862.000000  0   -3666353.404   2909138.936  -5062208.846
10 0 59459  32982.000000  0   -4009391.451   3462023.515  -4411922.881
99
